SWARM B                 
1 39451U 13067A   26205.31642490  .00003978  00000+0  14114-3 0  9993
2 39451  87.7465 331.0393 0002256  93.0506 267.1002 15.28765835688911
SWARM A                 
1 39452U 13067B   26205.24942157  .00010821  00000+0  19156-3 0  9995
2 39452  87.3302  42.4583 0002858  74.3278 285.8298 15.50133460711995
SWARM C                 
1 39453U 13067C   26205.18383904  .00011673  00000+0  20227-3 0  9995
2 39453  87.3303  41.0630 0003249  90.4878 269.6756 15.50744972711945
BRITE-CA1 (TORONTO)     
1 40020U 14033L   26205.27089625  .00001157  00000+0  18040-3 0  9990
2 40020  97.9780 333.5246 0079136 157.3013 203.1726 14.72738418647676
OCO 2                   
1 40059U 14035A   26205.30535795  .00000385  00000+0  95531-4 0  9995
2 40059  98.2021 146.0352 0001395  80.9699 279.1657 14.57138018641457
BRITE-PL2 (HEWELIUSZ)   
1 40119U 14049B   26205.26057130  .00002136  00000+0  20198-3 0  9996
2 40119  97.9123 317.5544 0013521 352.7139   7.3883 14.94711012646981
MMS 1                   
1 40482U 15011A   26205.33335648 -.00001651  00000+0  00000+0 0  9998
2 40482  72.5744 348.3628 8299745 168.2076 127.8042  0.28359287  1387
MMS 2                   
1 40483U 15011B   26205.33335648 -.00001652  00000+0  00000+0 0  9990
2 40483  72.5785 348.3617 8302564 168.2103 127.7900  0.28359245  1382
MMS 3                   
1 40484U 15011C   26205.33335648 -.00001651  00000+0  00000+0 0  9990
2 40484  72.5781 348.3737 8300932 168.2181 127.7641  0.28359240  1359
MMS 4                   
1 40485U 15011D   26205.33335648 -.00001651  00000+0  00000+0 0  9991
2 40485  72.5736 348.3571 8300892 168.2280 127.7606  0.28359273  1381
ASTROSAT                
1 40930U 15052A   26205.15840975  .00001617  00000+0  11480-3 0  9994
2 40930   5.9961 249.2331 0008133 206.8013 153.1694 14.82564117585328
DAMPE                   
1 41173U 15078A   26205.29630927  .00001385  00000+0  49011-4 0  9995
2 41173  97.4575 210.9495 0010566 310.7028  49.3294 15.30871302590223
PISAT                   
1 41784U 16059B   26204.99379157  .00000948  00000+0  16839-3 0  9999
2 41784  97.8196 203.8685 0030577  88.0656 272.4052 14.69042320525143
HXMT (HUIYAN)           
1 42758U 17034A   26205.29605152  .00007233  00000+0  34872-3 0  9997
2 42758  43.0152 336.3659 0031028  18.3386 341.8575 15.18758687503301
FLYING LAPTOP           
1 42831U 17042G   26205.31100464  .00002961  00000+0  23347-3 0  9995
2 42831  97.4851 359.4578 0019072   3.5658 356.5700 15.01356238492028
ZHANGHENG 1-01 (CSES-1) 
1 43194U 18015C   26205.31365497  .00009308  00000+0  42486-3 0  9995
2 43194  97.6898  11.7145 0017026 134.7563 225.5061 15.20708291470281
SALSAT                  
1 46495U 20068K   26205.22681703  .00008806  00000+0  30305-3 0  9993
2 46495  97.8865 210.5620 0010182 161.9998 198.1604 15.30274447321028
IXPE                    
1 49954U 21121A   26205.33335648  .00012917  00000+0  70406-3 0  9997
2 49954   0.2322  36.3878 0007505 282.8369 254.5963 15.10554492  5445
SMILE                   
1 69123U 26109A   26194.95939329  .00000936  00000+0  00000+0 0  9996
2 69123  70.0512 206.6048 8313707 286.9544   0.1879  0.47500629    65
