OBJECT_NAME,OBJECT_ID,EPOCH,MEAN_MOTION,ECCENTRICITY,INCLINATION,RA_OF_ASC_NODE,ARG_OF_PERICENTER,MEAN_ANOMALY,EPHEMERIS_TYPE,CLASSIFICATION_TYPE,NORAD_CAT_ID,ELEMENT_SET_NO,REV_AT_EPOCH,BSTAR,MEAN_MOTION_DOT,MEAN_MOTION_DDOT
SWARM B,2013-067A,2026-07-24T07:35:39.111360,15.28765835,.00022565,87.7465,331.0393,93.0506,267.1002,0,U,39451,999,68891,.14114426E-3,.3978E-4,0
SWARM A,2013-067B,2026-07-24T05:59:10.023648,15.50133460,.00028584,87.3302,42.4583,74.3278,285.8298,0,U,39452,999,71199,.19156365E-3,.10821E-3,0
SWARM C,2013-067C,2026-07-24T04:24:43.693056,15.50744972,.00032492,87.3303,41.0630,90.4878,269.6756,0,U,39453,999,71194,.20226706E-3,.11673E-3,0
BRITE-CA1 (TORONTO),2014-033L,2026-07-24T06:30:05.436000,14.72738418,.00791365,97.9780,333.5246,157.3013,203.1726,0,U,40020,999,64767,.18039674E-3,.1157E-4,0
OCO 2,2014-035A,2026-07-24T07:19:42.926880,14.57138018,.00013957,98.2021,146.0352,80.9699,279.1657,0,U,40059,999,64145,.95530885E-4,.385E-5,0
BRITE-PL2 (HEWELIUSZ),2014-049B,2026-07-24T06:15:13.360320,14.94711012,.00135211,97.9123,317.5544,352.7139,7.3883,0,U,40119,999,64698,.20197706E-3,.2136E-4,0
MMS 1,2015-011A,2026-07-24T08:00:01.999872,0.28359287,.82997452,72.5744,348.3628,168.2076,127.8042,0,U,40482,999,138,0,-.1651E-4,0
MMS 2,2015-011B,2026-07-24T08:00:01.999872,0.28359245,.83025645,72.5785,348.3617,168.2103,127.7900,0,U,40483,999,138,0,-.1652E-4,0
MMS 3,2015-011C,2026-07-24T08:00:01.999872,0.28359240,.83009324,72.5781,348.3737,168.2181,127.7641,0,U,40484,999,135,0,-.1651E-4,0
MMS 4,2015-011D,2026-07-24T08:00:01.999872,0.28359273,.83008923,72.5736,348.3571,168.2280,127.7606,0,U,40485,999,138,0,-.1651E-4,0
ASTROSAT,2015-052A,2026-07-24T03:48:06.602400,14.82564117,.00081336,5.9961,249.2331,206.8013,153.1694,0,U,40930,999,58532,.11480237E-3,.1617E-4,0
DAMPE,2015-078A,2026-07-24T07:06:41.120928,15.30871302,.00105665,97.4575,210.9495,310.7028,49.3294,0,U,41173,999,59022,.49011304E-4,.1385E-4,0
PISAT,2016-059B,2026-07-23T23:51:03.591648,14.69042320,.00305777,97.8196,203.8685,88.0656,272.4052,0,U,41784,999,52514,.16839174E-3,.948E-5,0
HXMT (HUIYAN),2017-034A,2026-07-24T07:06:18.851328,15.18758687,.00310289,43.0152,336.3659,18.3386,341.8575,0,U,42758,999,50330,.34872323E-3,.7233E-4,0
FLYING LAPTOP,2017-042G,2026-07-24T07:27:50.800896,15.01356238,.00190723,97.4851,359.4578,3.5658,356.5700,0,U,42831,999,49202,.23346881E-3,.2961E-4,0
ZHANGHENG 1-01 (CSES-1),2018-015C,2026-07-24T07:31:39.789408,15.20708291,.00170266,97.6898,11.7145,134.7563,225.5061,0,U,43194,999,47028,.42485789E-3,.9308E-4,0
SALSAT,2020-068K,2026-07-24T05:26:36.991392,15.30274447,.00101826,97.8865,210.5620,161.9998,198.1604,0,U,46495,999,32102,.30305131E-3,.8806E-4,0
IXPE,2021-121A,2026-07-24T08:00:01.999872,15.10554492,.00075051,0.2322,36.3878,282.8369,254.5963,0,U,49954,999,544,.70405692E-3,.12917E-3,0
SMILE,2026-109A,2026-07-13T23:01:31.580256,0.47500629,.83137076,70.0512,206.6048,286.9544,0.1879,0,U,69123,999,6,0,.936E-5,0
